{"type": "FeatureCollection", "features": [ {"type": "Feature", "properties": {"norad_id": 67060, "name": "HULIANWANG DIGUI-120", "group": "last-30-days", "lat": -30.775685001311057, "lon": -175.96967383804753, "alt_km": 804.5685993666848, "timestamp": "2025-12-21T18:54:57.226523+00:00", "meta": {"OBJECT_NAME": "HULIANWANG DIGUI-120", "OBJECT_ID": "2025-295B", "EPOCH": "2025-12-21T12:49:54.104736", "MEAN_MOTION": 14.25709936, "ECCENTRICITY": 0.00131745, "INCLINATION": 50.0059, "RA_OF_ASC_NODE": 335.1053, "ARG_OF_PERICENTER": 278.4539, "MEAN_ANOMALY": 81.4881, "EPHEMERIS_TYPE": 0, "CLASSIFICATION_TYPE": "U", "NORAD_CAT_ID": 67060, "ELEMENT_SET_NO": 999, "REV_AT_EPOCH": 137, "BSTAR": -1.4927128e-05, "MEAN_MOTION_DOT": -1.96e-06, "MEAN_MOTION_DDOT": 0}, "tle": {"line1": "1 67060U 25295B   25355.53465399 -.00000196  00000+0 -14927-4 0  9990", "line2": "2 67060  50.0059 335.1053 0013174 278.4539  81.4881 14.25709936  1371"}}, "geometry": {"type": "Point", "coordinates": [-175.96967383804753, -30.775685001311057]}}, {"type": "Feature", "properties": {"norad_id": 67061, "name": "HULIANWANG DIGUI-121", "group": "last-30-days", "lat": -29.851574047526167, "lon": -177.1691994306007, "alt_km": 806.6372974772867, "timestamp": "2025-12-21T18:54:57.226533+00:00", "meta": {"OBJECT_NAME": "HULIANWANG DIGUI-121", "OBJECT_ID": "2025-295C", "EPOCH": "2025-12-21T11:09:08.115264", "MEAN_MOTION": 14.2503841, "ECCENTRICITY": 0.00133895, "INCLINATION": 50.0022, "RA_OF_ASC_NODE": 335.3907, "ARG_OF_PERICENTER": 276.5317, "MEAN_ANOMALY": 83.4072, "EPHEMERIS_TYPE": 0, "CLASSIFICATION_TYPE": "U", "NORAD_CAT_ID": 67061, "ELEMENT_SET_NO": 999, "REV_AT_EPOCH": 136, "BSTAR": 2.6356e-07, "MEAN_MOTION_DOT": -1.59e-06, "MEAN_MOTION_DDOT": 0}, "tle": {"line1": "1 67061U 25295C   25355.46467726 -.00000159  00000+0  26356-6 0  9998", "line2": "2 67061  50.0022 335.3907 0013389 276.5317  83.4072 14.25038410  1368"}}, "geometry": {"type": "Point", "coordinates": [-177.1691994306007, -29.851574047526167]}}, {"type": "Feature", "properties": {"norad_id": 67062, "name": "HULIANWANG DIGUI-122", "group": "last-30-days", "lat": -31.87309218936118, "lon": -174.5048580465986, "alt_km": 805.076024230083, "timestamp": "2025-12-21T18:54:57.226545+00:00", "meta": {"OBJECT_NAME": "HULIANWANG DIGUI-122", "OBJECT_ID": "2025-295D", "EPOCH": "2025-12-21T11:08:30.884640", "MEAN_MOTION": 14.25756317, "ECCENTRICITY": 0.00131646, "INCLINATION": 50.0054, "RA_OF_ASC_NODE": 335.3982, "ARG_OF_PERICENTER": 284.0254, "MEAN_ANOMALY": 75.9196, "EPHEMERIS_TYPE": 0, "CLASSIFICATION_TYPE": "U", "NORAD_CAT_ID": 67062, "ELEMENT_SET_NO": 999, "REV_AT_EPOCH": 136, "BSTAR": 8.5481235e-05, "MEAN_MOTION_DOT": 4.4e-07, "MEAN_MOTION_DDOT": 0}, "tle": {"line1": "1 67062U 25295D   25355.46424635  .00000044  00000+0  85481-4 0  9995", "line2": "2 67062  50.0054 335.3982 0013164 284.0254  75.9196 14.25756317  1368"}}, "geometry": {"type": "Point", "coordinates": [-174.5048580465986, -31.87309218936118]}}, {"type": "Feature", "properties": {"norad_id": 67063, "name": "HULIANWANG DIGUI-123", "group": "last-30-days", "lat": -34.86608294185302, "lon": -170.18196424529341, "alt_km": 804.3072522175944, "timestamp": "2025-12-21T18:54:57.226566+00:00", "meta": {"OBJECT_NAME": "HULIANWANG DIGUI-123", "OBJECT_ID": "2025-295E", "EPOCH": "2025-12-21T12:48:10.087776", "MEAN_MOTION": 14.25889184, "ECCENTRICITY": 0.00124774, "INCLINATION": 50.006, "RA_OF_ASC_NODE": 335.1, "ARG_OF_PERICENTER": 283.4462, "MEAN_ANOMALY": 76.5062, "EPHEMERIS_TYPE": 0, "CLASSIFICATION_TYPE": "U", "NORAD_CAT_ID": 67063, "ELEMENT_SET_NO": 999, "REV_AT_EPOCH": 137, "BSTAR": 8.2620384e-05, "MEAN_MOTION_DOT": 3.8e-07, "MEAN_MOTION_DDOT": 0}, "tle": {"line1": "1 67063U 25295E   25355.53345009  .00000038  00000+0  82620-4 0  9996", "line2": "2 67063  50.0060 335.1000 0012477 283.4462  76.5062 14.25889184  1374"}}, "geometry": {"type": "Point", "coordinates": [-170.18196424529341, -34.86608294185302]}}, {"type": "Feature", "properties": {"norad_id": 67064, "name": "HULIANWANG DIGUI-124", "group": "last-30-days", "lat": -36.17919907762328, "lon": -168.1170718513959, "alt_km": 803.4455422332194, "timestamp": "2025-12-21T18:54:57.226577+00:00", "meta": {"OBJECT_NAME": "HULIANWANG DIGUI-124", "OBJECT_ID": "2025-295F", "EPOCH": "2025-12-21T06:03:55.141056", "MEAN_MOTION": 14.25948235, "ECCENTRICITY": 0.0012102, "INCLINATION": 50.0035, "RA_OF_ASC_NODE": 336.2679, "ARG_OF_PERICENTER": 277.2005, "MEAN_ANOMALY": 82.7533, "EPHEMERIS_TYPE": 0, "CLASSIFICATION_TYPE": "U", "NORAD_CAT_ID": 67064, "ELEMENT_SET_NO": 999, "REV_AT_EPOCH": 133, "BSTAR": -0.00020016, "MEAN_MOTION_DOT": -6.41e-06, "MEAN_MOTION_DDOT": 0}, "tle": {"line1": "1 67064U 25295F   25355.25272154 -.00000641  00000+0 -20016-3 0  9998", "line2": "2 67064  50.0035 336.2679 0012102 277.2005  82.7533 14.25948235  1331"}}, "geometry": {"type": "Point", "coordinates": [-168.1170718513959, -36.17919907762328]}}, {"type": "Feature", "properties": {"norad_id": 67065, "name": "HULIANWANG DIGUI-125", "group": "last-30-days", "lat": -36.275885895574405, "lon": -167.95675292178518, "alt_km": 804.0506698542858, "timestamp": "2025-12-21T18:54:57.226589+00:00", "meta": {"OBJECT_NAME": "HULIANWANG DIGUI-125", "OBJECT_ID": "2025-295G", "EPOCH": "2025-12-21T11:06:37.393920", "MEAN_MOTION": 14.25954731, "ECCENTRICITY": 0.00122684, "INCLINATION": 50.0011, "RA_OF_ASC_NODE": 335.378, "ARG_OF_PERICENTER": 283.9385, "MEAN_ANOMALY": 76.0164, "EPHEMERIS_TYPE": 0, "CLASSIFICATION_TYPE": "U", "NORAD_CAT_ID": 67065, "ELEMENT_SET_NO": 999, "REV_AT_EPOCH": 136, "BSTAR": 7.9035453e-05, "MEAN_MOTION_DOT": 3e-07, "MEAN_MOTION_DDOT": 0}, "tle": {"line1": "1 67065U 25295G   25355.46293280  .00000030  00000+0  79035-4 0  9991", "line2": "2 67065  50.0011 335.3780 0012268 283.9385  76.0164 14.25954731  1364"}}, "geometry": {"type": "Point", "coordinates": [-167.95675292178518, -36.275885895574405]}}, {"type": "Feature", "properties": {"norad_id": 67066, "name": "HULIANWANG DIGUI-126", "group": "last-30-days", "lat": -39.26829736397385, "lon": -162.65861378490743, "alt_km": 803.1908670963694, "timestamp": "2025-12-21T18:54:57.226599+00:00", "meta": {"OBJECT_NAME": "HULIANWANG DIGUI-126", "OBJECT_ID": "2025-295H", "EPOCH": "2025-12-21T12:46:08.279328", "MEAN_MOTION": 14.26097726, "ECCENTRICITY": 0.00114288, "INCLINATION": 50.0013, "RA_OF_ASC_NODE": 335.076, "ARG_OF_PERICENTER": 281.3197, "MEAN_ANOMALY": 78.6432, "EPHEMERIS_TYPE": 0, "CLASSIFICATION_TYPE": "U", "NORAD_CAT_ID": 67066, "ELEMENT_SET_NO": 999, "REV_AT_EPOCH": 137, "BSTAR": 7.5254983e-05, "MEAN_MOTION_DOT": 2.1e-07, "MEAN_MOTION_DDOT": 0}, "tle": {"line1": "1 67066U 25295H   25355.53204027  .00000021  00000+0  75255-4 0  9991", "line2": "2 67066  50.0013 335.0760 0011428 281.3197  78.6432 14.26097726  1372"}}, "geometry": {"type": "Point", "coordinates": [-162.65861378490743, -39.26829736397385]}}, {"type": "Feature", "properties": {"norad_id": 67067, "name": "HULIANWANG DIGUI-127", "group": "last-30-days", "lat": -41.88997704311897, "lon": -157.16068056853547, "alt_km": 802.9765185320502, "timestamp": "2025-12-21T18:54:57.226610+00:00", "meta": {"OBJECT_NAME": "HULIANWANG DIGUI-127", "OBJECT_ID": "2025-295J", "EPOCH": "2025-12-21T12:44:47.878944", "MEAN_MOTION": 14.2625082, "ECCENTRICITY": 0.00108653, "INCLINATION": 50.0053, "RA_OF_ASC_NODE": 335.0789, "ARG_OF_PERICENTER": 285.2015, "MEAN_ANOMALY": 74.7697, "EPHEMERIS_TYPE": 0, "CLASSIFICATION_TYPE": "U", "NORAD_CAT_ID": 67067, "ELEMENT_SET_NO": 999, "REV_AT_EPOCH": 137, "BSTAR": -0.00027571791, "MEAN_MOTION_DOT": -8.26e-06, "MEAN_MOTION_DDOT": 0}, "tle": {"line1": "1 67067U 25295J   25355.53110971 -.00000826  00000+0 -27572-3 0  9999", "line2": "2 67067  50.0053 335.0789 0010865 285.2015  74.7697 14.26250820  1370"}}, "geometry": {"type": "Point", "coordinates": [-157.16068056853547, -41.88997704311897]}}, {"type": "Feature", "properties": {"norad_id": 67068, "name": "CZ-12 R/B", "group": "last-30-days", "lat": 31.72046142252275, "lon": 4.298194629547885, "alt_km": 773.5797910534557, "timestamp": "2025-12-21T18:54:57.226620+00:00", "meta": {"OBJECT_NAME": "CZ-12 R/B", "OBJECT_ID": "2025-295K", "EPOCH": "2025-12-21T10:23:33.839520", "MEAN_MOTION": 14.41128985, "ECCENTRICITY": 0.00568766, "INCLINATION": 49.9943, "RA_OF_ASC_NODE": 334.5653, "ARG_OF_PERICENTER": 167.0593, "MEAN_ANOMALY": 193.1802, "EPHEMERIS_TYPE": 0, "CLASSIFICATION_TYPE": "U", "NORAD_CAT_ID": 67068, "ELEMENT_SET_NO": 999, "REV_AT_EPOCH": 136, "BSTAR": 6.275251e-06, "MEAN_MOTION_DOT": -1.48e-06, "MEAN_MOTION_DDOT": 0}, "tle": {"line1": "1 67068U 25295K   25355.43303055 -.00000148  00000+0  62753-5 0  9994", "line2": "2 67068  49.9943 334.5653 0056876 167.0593 193.1802 14.41128985  1366"}}, "geometry": {"type": "Point", "coordinates": [4.298194629547885, 31.72046142252275]}}, {"type": "Feature", "properties": {"norad_id": 67069, "name": "XIWANG-5 02", "group": "last-30-days", "lat": -1.646074975093049, "lon": 48.08829611210309, "alt_km": 515.6009961018281, "timestamp": "2025-12-21T18:54:57.226630+00:00", "meta": {"OBJECT_NAME": "XIWANG-5 02", "OBJECT_ID": "2025-296A", "EPOCH": "2025-12-21T12:36:21.226752", "MEAN_MOTION": 15.16841551, "ECCENTRICITY": 0.00144933, "INCLINATION": 41.3525, "RA_OF_ASC_NODE": 51.4607, "ARG_OF_PERICENTER": 88.2506, "MEAN_ANOMALY": 271.9975, "EPHEMERIS_TYPE": 0, "CLASSIFICATION_TYPE": "U", "NORAD_CAT_ID": 67069, "ELEMENT_SET_NO": 999, "REV_AT_EPOCH": 129, "BSTAR": 0.00048912548, "MEAN_MOTION_DOT": 9.641e-05, "MEAN_MOTION_DDOT": 0}, "tle": {"line1": "1 67069U 25296A   25355.52524568  .00009641  00000+0  48913-3 0  9996", "line2": "2 67069  41.3525  51.4607 0014493  88.2506 271.9975 15.16841551  1292"}}, "geometry": {"type": "Point", "coordinates": [48.08829611210309, -1.646074975093049]}}]}